#dP2024 10 25  0  0  0.00000000      96 __u+U IGS20 FIT  IAC
## 2337 432000.00000000   900.00000000 60608 0.0000000000000
+   53   G02G03G04G05G06G07G08G09G10G11G12G13G14G15G16G17G18
+        G19G20G21G22G23G24G25G26G27G28G29G30G31G32R01R02R03
+        R04R05R07R08R09R11R12R14R15R16R17R18R19R20R21R22R24
+        R25R26  0  0  0  0  0  0  0  0  0  0  0  0  0  0  0
+          0  0  0  0  0  0  0  0  0  0  0  0  0  0  0  0  0
++         6  6  6  7  6  5  5  5  6  7  6  6  6  6  6  6  7
++         6  7  6  6  6  6  6  6  6  5  7  6  6  6  8  8  6
++         5  5  7  6  5  6  7  7  7  6  7  7  7  7  7  5  6
++         0  7  0  0  0  0  0  0  0  0  0  0  0  0  0  0  0
++         0  0  0  0  0  0  0  0  0  0  0  0  0  0  0  0  0
%c M  cc GPS ccc cccc cccc cccc cccc ccccc ccccc ccccc ccccc
%c cc cc ccc ccc cccc cccc cccc cccc ccccc ccccc ccccc ccccc
%f  0.0000000  0.000000000  0.00000000000  0.000000000000000
%f  0.0000000  0.000000000  0.00000000000  0.000000000000000
%i    0    0    0    0      0      0      0      0         0
%i    0    0    0    0      0      0      0      0         0
/* INFORMATION & ANALYSIS CENTER (IAC)      ULTRA-RAPID DATA
/* S/V CLOCKS ARE ALIGNED TO GNSS TIME                      
/* G:C1WC2W R:C1PC2P E:C1XC5X C:C2IC6I J:C1CC2S             
/* PCV:IGS20_2317 OL/AL:FES2004  NONE     YN ORB:CoN CLK:CoN
*  2024 10 25 14 30  0.00000000
PG02 -13809.266443  15178.070624  17140.600103   -329.337599
PG03 -21583.502614  12870.487489  -8591.871162    580.947780
PG04 -12150.899006   9185.791402 -21753.762441    467.974902
PG05  25230.423555  -4127.571853  -7504.087670   -190.919546
PG06   6605.264962  19633.501542 -16489.238482    -64.571098
PG07  -6104.922538  25547.367063   -947.463343    -24.737839
PG08 -20349.399190  -1023.396511  17148.731055    394.877232
PG09  -2260.007307  16907.085884 -20435.563016    414.225338
PG10  -8429.482300 -12608.945267  22056.993481   -171.223479
PG11  14026.808094   5792.544891 -21763.525007   -746.445579
PG12  24169.951831  -9798.773991  -5172.496167   -547.586664
PG13  20514.647440  10699.221752  13022.626862    683.107472
PG14   4123.867238  15023.407617  21554.199766    525.369021
PG15  20050.644397  -1807.019899  16880.755680    219.912531
PG16 -24407.999065  -2285.662480 -11110.608113   -145.615166
PG17  11217.019948  21733.869945  10536.402168    583.114526
PG18   5869.645819 -25775.997755    145.226912   -659.050369
PG19  17621.558581  20173.488197    631.288968    554.830722
PG20  20182.027145   2675.967662 -16903.150423    369.338785
PG21 -15190.121728   8293.910536  20228.916466     98.988224
PG22  11994.832326  12102.881576  20700.334660    -74.074530
PG23   6648.883723 -16393.408336  19768.515218    349.231484
PG24  14270.025543 -13555.166011  17189.513266   -483.478583
PG25  14267.304808 -16533.461907 -15279.828407    499.385593
PG26 -16798.986684  -8348.986288 -19106.458262     46.827875
PG27 -22397.788297 -11300.213327   9054.246420    -34.696397
PG28  -6542.608686 -21213.996398 -14594.396397   -457.688577
PG29   5018.055710 -15568.173310 -20942.668630   -568.742936
PG30   1393.294687  24929.329328   8806.418882   -295.357600
PG31 -12712.683034 -10648.407796 -20908.813401   -222.848398
PG32 -14527.573432 -20740.667420   8572.125001   -582.446043
PR01 -24289.074908  -7355.080289  -2548.635657    102.228247
PR02 -18317.199606   1500.319623 -17686.808970    -25.360621
PR03  -2081.653000  10735.429181 -23001.225615    110.080165
PR04  14698.199537  13698.448106 -15678.530701    260.902151
PR05  23635.315551   9551.060514     42.031006    139.698065
PR07   1471.113998 -10979.701434  23014.736040     93.654274
PR08 -15002.908529 -13662.717125  15538.766317     -6.383637
PR09  20515.746499 -14376.688807   5050.903678    216.739199
PR11   -266.241711 -13182.598507 -21829.337697      8.438437
PR12 -16301.916574   1156.076133 -19566.133225     46.452784
PR14 -13107.116678  18347.999963  11917.395623     27.132865
PR15   1914.459210  12257.756450  22304.574493     74.658750
PR16  16125.149801  -1156.628529  19751.981351     30.222996
PR17  -1250.629787  23413.974283  10120.588144    133.933074
PR18   6070.751772  23948.309058  -6244.252852    168.616326
PR19   9832.650999  14489.581221 -18547.096870   -296.147178
PR20   9153.638578  -8471.069773 -22241.406741   -120.935809
PR21   1856.145402 -22948.920048 -10934.748771   -145.751453
PR22  -6184.598057 -23612.638637   7448.012459     10.374914
PR24  -9068.024618   9477.846401  21905.589794    -77.423527
PR25      0.000000      0.000000      0.000000 999999.999999
PR26 -13635.210766 -13600.802353  16732.343671   -518.736744
*  2024 10 25 14 45  0.00000000
PG02 -13771.864113  13189.952541  18812.116160   -329.330386
PG03 -22401.591448  12975.378620  -5837.775315    580.957777
PG04 -13958.798138   7510.909901 -21320.469331    467.980924
PG05  24396.880306  -3571.000817 -10139.681500   -190.921027
PG06   6135.292562  21353.064413 -14401.588815    -64.596459
PG07  -6364.225122  25163.205639  -3792.206225    -24.735365
PG08 -21716.600408  -2300.006035  15298.457413    394.887165
PG09  -4157.561956  15488.621394 -21254.991626    414.240361
PG10  -6094.967181 -13450.095259  22300.336281   -171.235904
PG11  13449.770464   8197.356398 -21357.309868   -746.447853
PG12  24623.409838  -9668.433842  -2355.083728   -547.589148
PG13  21297.657752  11844.196367  10614.035910    683.109159
PG14   1792.334371  15776.104080  21314.190664    525.376523
PG15  21579.492712   -632.601337  15050.990637    219.916620
PG16 -23156.091416  -2800.090917 -13455.366435   -145.606045
PG17  10138.795681  20992.648792  12966.269938    583.102357
PG18   6069.209506 -25581.171395  -2746.049165   -659.051361
PG19  17299.875231  20140.481616   3458.891013    554.834994
PG20  18494.654022   3847.302281 -18535.177021    369.338508
PG21 -15120.161383   5976.850023  21190.844942     98.987137
PG22   9754.483807  12775.406623  21500.429833    -74.077485
PG23   8712.098082 -17088.369445  18302.616570    349.238759
PG24  14308.797742 -11389.475032  18665.506635   -483.477234
PG25  15826.629355 -16893.922981 -13128.209241    499.385421
PG26 -14834.560731  -9381.685556 -20196.594926     46.819086
PG27 -22962.534845 -12047.024346   6411.158607    -34.696519
PG28  -6124.031328 -22708.848950 -12351.851046   -457.699897
PG29   6791.868191 -13912.902177 -21609.392587   -568.740347
PG30    927.772064  25709.046485   6165.835512   -295.350789
PG31 -12155.641886 -12881.337443 -19916.590143   -222.847933
PG32 -13554.655759 -20204.026882  11114.646167   -582.441889
PR01 -24444.573658  -7248.547309    661.987225    102.229545
PR02 -20286.033078    915.115407 -15447.103434    -25.361152
PR03  -4771.882722   9790.387856 -23027.570739    110.081011
PR04  12787.107167  12872.116841 -17895.622880    260.903486
PR05  23514.565296   9315.305585  -3180.875782    139.697944
PR07   4145.323558 -10027.482965  23118.127793     93.654807
PR08 -13115.162898 -12870.149518  17767.414343     -6.383407
PR09  19858.756163 -13899.802096   8095.933482    216.741800
PR11   1664.739213 -14953.610443 -20593.226252      8.438270
PR12 -14364.978258   -442.695730 -21053.704097     46.453301
PR14 -14007.656592  19282.590845   9074.296772     27.132587
PR15    -88.565528  14047.901230  21307.320953     74.658585
PR16  14175.833373    450.616919  21218.967224     30.223045
PR17  -1340.014120  21988.188635  12919.565277    133.936254
PR18   6359.505521  24486.913818  -3070.093327    168.617691
PR19  10265.618945  16612.022075 -16411.938447   -296.147929
PR20   9474.005301  -5691.278854 -22976.997943   -120.936503
PR21   1949.448402 -21419.937280 -13677.804127   -145.754715
PR22  -6429.000964 -24308.211471   4344.134468     10.364469
PR24  -9523.474806   6769.323855  22701.008892    -77.424528
PR25      0.000000      0.000000      0.000000 999999.999999
PR26 -11600.290931 -12784.105899  18787.648539   -518.704068
EOF
